[{"OBJECT_NAME":"STARLINK-31854","OBJECT_ID":"2024-084T","EPOCH":"2026-03-09T04:34:19.577568","MEAN_MOTION":15.2757581,"ECCENTRICITY":0.00010041,"INCLINATION":43.0013,"RA_OF_ASC_NODE":11.5905,"ARG_OF_PERICENTER":261.0154,"MEAN_ANOMALY":99.0584,"EPHEMERIS_TYPE":0,"CLASSIFICATION_TYPE":"U","NORAD_CAT_ID":59671,"ELEMENT_SET_NO":999,"REV_AT_EPOCH":10465,"BSTAR":-4.7181657e-5,"MEAN_MOTION_DOT":-1.56e-5,"MEAN_MOTION_DDOT":0},{"OBJECT_NAME":"TEVEL2-3","OBJECT_ID":"2025-052J","EPOCH":"2026-03-09T15:29:22.754400","MEAN_MOTION":15.30377031,"ECCENTRICITY":0.0004761,"INCLINATION":97.3994,"RA_OF_ASC_NODE":324.7775,"ARG_OF_PERICENTER":105.7353,"MEAN_ANOMALY":254.4413,"EPHEMERIS_TYPE":0,"CLASSIFICATION_TYPE":"U","NORAD_CAT_ID":63218,"ELEMENT_SET_NO":999,"REV_AT_EPOCH":5485,"BSTAR":0.00069446,"MEAN_MOTION_DOT":0.00020365,"MEAN_MOTION_DDOT":0}]
