STARLINK-31854          
1 59671U 24084T   26068.19050437 -.00001560  00000+0 -47182-4 0  9996
2 59671  43.0013  11.5905 0001004 261.0154  99.0584 15.27575810104658
TEVEL2-3                
1 63218U 25052J   26068.64540225  .00020365  00000+0  69446-3 0  9991
2 63218  97.3994 324.7775 0004761 105.7353 254.4413 15.30377031 54855
